{
  "type": "FeatureCollection",
  "features": [
    {
      "type": "Feature",
      "properties": {
        "name_en": "Samakhi Xai",
        "name_lo": "ສາມັກຄີໄຊ",
        "slug": "samakhi-xai",
        "capital": true
      },
      "geometry": {
        "type": "Polygon",
        "coordinates": [[
          [106.90, 14.95], [107.00, 15.10], [107.15, 15.05],
          [107.20, 14.95], [107.15, 14.80], [107.05, 14.75],
          [106.95, 14.78], [106.88, 14.85], [106.90, 14.95]
        ]]
      }
    },
    {
      "type": "Feature",
      "properties": {
        "name_en": "Xayxetha",
        "name_lo": "ໄຊເຢດຖາ",
        "slug": "xayxetha",
        "capital": false
      },
      "geometry": {
        "type": "Polygon",
        "coordinates": [[
          [107.15, 14.80], [107.20, 14.95], [107.35, 14.95],
          [107.50, 14.85], [107.55, 14.70], [107.45, 14.60],
          [107.30, 14.58], [107.15, 14.65], [107.15, 14.80]
        ]]
      }
    },
    {
      "type": "Feature",
      "properties": {
        "name_en": "Sanxay",
        "name_lo": "ສານໄຊ",
        "slug": "sanxay",
        "capital": false
      },
      "geometry": {
        "type": "Polygon",
        "coordinates": [[
          [107.15, 15.05], [107.20, 15.25], [107.35, 15.40],
          [107.55, 15.35], [107.65, 15.15], [107.60, 14.95],
          [107.50, 14.85], [107.35, 14.95], [107.20, 14.95],
          [107.15, 15.05]
        ]]
      }
    },
    {
      "type": "Feature",
      "properties": {
        "name_en": "Phouvong",
        "name_lo": "ພູວົງ",
        "slug": "phouvong",
        "capital": false
      },
      "geometry": {
        "type": "Polygon",
        "coordinates": [[
          [106.95, 14.78], [107.05, 14.75], [107.15, 14.65],
          [107.30, 14.58], [107.45, 14.60], [107.45, 14.40],
          [107.30, 14.20], [107.10, 14.10], [106.90, 14.15],
          [106.75, 14.30], [106.70, 14.50], [106.80, 14.65],
          [106.90, 14.72], [106.95, 14.78]
        ]]
      }
    },
    {
      "type": "Feature",
      "properties": {
        "name_en": "Sanamxay",
        "name_lo": "ສະໜາມໄຊ",
        "slug": "sanamxay",
        "capital": false
      },
      "geometry": {
        "type": "Polygon",
        "coordinates": [[
          [106.50, 14.90], [106.60, 15.05], [106.75, 15.10],
          [106.88, 14.85], [106.90, 14.72], [106.80, 14.65],
          [106.70, 14.50], [106.55, 14.55], [106.45, 14.70],
          [106.50, 14.90]
        ]]
      }
    }
  ]
}